     3.00           N                   E                   RINEX VERSION / TYPE
BRD_USR             ESA                 20190114 081748  UTCPGM / RUN BY / DATE
 GAL   3.7500E+01  1.1719E-01 -6.1035E-04  0.0000E+00       IONOSPHERIC CORR
GAUT  1.8626451492E-09-1.776356839E-15  86400 2036 GSTB   0 TIME SYSTEM CORR
GPGA -4.9476511776E-10-6.217248938E-15  86400 2036 GSTB   0 TIME SYSTEM CORR
                                                            END OF HEADER
E15 2019 01 14 06 30 00 9.230124996975E-04-1.094235813071E-12 0.000000000000E+00
     5.500000000000E+01-5.062500000000E+00 2.853333138493E-09-4.356405812874E-01
    -1.695007085800E-07 3.897025017068E-04 8.322298526764E-06 5.440596836090E+03
     1.098000000000E+05 8.009374141693E-08-9.904393569862E-01-2.793967723846E-08
     9.851661912348E-01 1.729062500000E+02-1.583842884774E+00-5.530230356292E-09
     3.060841782060E-10 2.580000000000E+02 2.036000000000E+03 0.000000000000E+00
     3.120000000000E+00 5.600000000000E+01 1.396983861923E-09 0.000000000000E+00
     1.105000000000E+05 0.000000000000E+00 0.000000000000E+00 0.000000000000E+00
E18 2019 01 14 06 30 00 5.607615574263E-03-2.846434199455E-11 0.000000000000E+00
     5.500000000000E+01 6.050000000000E+01 5.503443526227E-09-9.931415553950E-01
     4.326924681664E-06 1.662973356433E-01 1.006573438644E-05 5.289358066559E+03
     1.098000000000E+05-1.901760697365E-06-1.570155429699E+00 4.228204488754E-06
     8.818414444644E-01 1.782812500000E+02 1.442478641368E+00-9.186454081257E-09
    -5.918103655629E-10 2.580000000000E+02 2.036000000000E+03 0.000000000000E+00
     3.120000000000E+00 5.600000000000E+01 1.396983861923E-08 0.000000000000E+00
     1.105000000000E+05 0.000000000000E+00 0.000000000000E+00 0.000000000000E+00
E21 2019 01 14 06 30 00-5.143469898030E-04-1.932676241267E-12 0.000000000000E+00
     5.500000000000E+01 3.931250000000E+01 2.886191650039E-09-1.959000629268E+00
     1.737847924232E-06 4.724378231913E-05 4.393979907036E-06 5.440626087189E+03
     1.098000000000E+05 2.607703208923E-08-3.073038836311E+00 2.421438694000E-08
     9.896657673688E-01 2.563125000000E+02 4.789583872936E-01-5.646663777640E-09
    -2.428672592533E-11 2.580000000000E+02 2.036000000000E+03 0.000000000000E+00
     3.120000000000E+00 0.000000000000E+00-2.561137080193E-09 0.000000000000E+00
     1.105000000000E+05 0.000000000000E+00 0.000000000000E+00 0.000000000000E+00
E24 2019 01 14 06 30 00 6.286897754762E-03-1.963940121641E-11 0.000000000000E+00
     5.500000000000E+01 3.134375000000E+01 2.887263123241E-09 1.900565238491E+00
     1.572072505951E-06 4.782041069120E-04 4.541128873825E-06 5.440614261627E+03
     1.098000000000E+05-3.539025783539E-08-3.066971879506E+00-2.235174179077E-08
     9.876707874470E-01 2.544687500000E+02 5.258606015305E-01-5.678093658249E-09
    -6.214544575012E-11 2.580000000000E+02 2.036000000000E+03 0.000000000000E+00
     3.120000000000E+00 0.000000000000E+00 4.284083843231E-08 0.000000000000E+00
     1.105000000000E+05 0.000000000000E+00 0.000000000000E+00 0.000000000000E+00
E26 2019 01 14 06 30 00 5.021748831496E-03-4.332889602665E-11 0.000000000000E+00
     5.500000000000E+01 1.875000000000E-01 2.929407735876E-09-1.597720694749E+00
     9.872019290924E-08 3.163261571899E-04 7.202848792076E-06 5.440611129761E+03
     1.098000000000E+05-2.793967723846E-08-9.815283250516E-01-3.725290298462E-08
     9.783250859782E-01 1.952500000000E+02-1.986133961903E+00-5.536659195508E-09
     2.817974522807E-10 2.580000000000E+02 2.036000000000E+03 0.000000000000E+00
     3.120000000000E+00 0.000000000000E+00 1.164153218269E-09 0.000000000000E+00
     1.105000000000E+05 0.000000000000E+00 0.000000000000E+00 0.000000000000E+00
E30 2019 01 14 05 40 00 5.190011172090E-03-3.055333763768E-11 0.000000000000E+00
     5.000000000000E+01 4.293750000000E+01 2.951908673131E-09-9.113653286069E-01
     2.069398760796E-06 3.144926158711E-04 4.531815648079E-06 5.440609916687E+03
     1.068000000000E+05-3.725290298462E-08-3.067010459582E+00 5.587935447693E-09
     9.876550405968E-01 2.540937500000E+02 6.121731690468E-01-5.691308494415E-09
    -2.750114553310E-11 2.580000000000E+02 2.036000000000E+03 0.000000000000E+00
     3.120000000000E+00 0.000000000000E+00-3.026798367500E-09 0.000000000000E+00
     1.105000000000E+05 0.000000000000E+00 0.000000000000E+00 0.000000000000E+00
E31 2019 01 14 06 30 00 9.330859757029E-04-9.663381206337E-12 0.000000000000E+00
     5.500000000000E+01 3.268750000000E+01 2.855476084898E-09-1.498475476444E+00
     1.581385731697E-06 2.175662666559E-04 4.796311259270E-06 5.440623918533E+03
     1.098000000000E+05 3.725290298462E-09-3.073070961992E+00-1.303851604462E-08
     9.896419071749E-01 2.516250000000E+02-1.550844578970E+00-5.622377051715E-09
    -6.928860043404E-11 2.580000000000E+02 2.036000000000E+03 0.000000000000E+00
     3.120000000000E+00 0.000000000000E+00-2.328306436539E-10 0.000000000000E+00
     1.105000000000E+05 0.000000000000E+00 0.000000000000E+00 0.000000000000E+00
E33 2019 01 14 06 30 00 8.479182142764E-04 8.526512829121E-14 0.000000000000E+00
     5.500000000000E+01 2.031250000000E+00 2.870833867468E-09-2.968011426984E+00
     1.881271600723E-07 3.704936243594E-04 7.404014468193E-06 5.440599761963E+03
     1.098000000000E+05-3.725290298462E-08-9.904642763327E-01 3.725290298462E-08
     9.852047244970E-01 1.940000000000E+02-1.407275555636E+00-5.538087826444E-09
     2.639395655709E-10 2.580000000000E+02 2.036000000000E+03 0.000000000000E+00
     3.120000000000E+00 5.600000000000E+01-8.149072527885E-09 0.000000000000E+00
     1.105000000000E+05 0.000000000000E+00 0.000000000000E+00 0.000000000000E+00
E36 2019 01 14 06 30 00 7.598660886288E-04-4.447997525858E-12 0.000000000000E+00
     5.500000000000E+01 9.593750000000E+00 2.881905757228E-09 1.073611086200E+00
     4.693865776062E-07 3.349655307829E-04 8.612871170044E-06 5.440600074768E+03
     1.098000000000E+05 1.676380634308E-08-9.904380315824E-01 2.980232238770E-08
     9.852129139124E-01 1.683750000000E+02-1.520258314941E+00-5.525587305748E-09
     3.439428980308E-10 2.580000000000E+02 2.036000000000E+03 0.000000000000E+00
     3.120000000000E+00 5.600000000000E+01 9.313225746155E-10 0.000000000000E+00
     1.105000000000E+05 0.000000000000E+00 0.000000000000E+00 0.000000000000E+00
E13 2019 01 14 05 30 00 3.817096585408E-04 4.831690603169E-13 0.000000000000E+00
     4.900000000000E+01 1.312500000000E+00 2.808688421718E-09-1.755800487361E+00
     9.499490261078E-08 3.432270605117E-04 7.688999176025E-06 5.440599588394E+03
     1.062000000000E+05-1.303851604462E-08-9.904082407186E-01-2.793967723846E-08
     9.852079707122E-01 1.876250000000E+02-1.492286800467E+00-5.459155967187E-09
     2.550106222160E-10 5.210000000000E+02 2.036000000000E+03 0.000000000000E+00
     3.120000000000E+00 4.550000000000E+02-4.190951585770E-09-5.355104804039E-09
     1.105150000000E+05 0.000000000000E+00 0.000000000000E+00 0.000000000000E+00
E26 2019 01 14 06 30 00 5.021749238949E-03-4.331468517194E-11 0.000000000000E+00
     5.500000000000E+01 1.875000000000E-01 2.929407735876E-09-1.597720694749E+00
     9.872019290924E-08 3.163261571899E-04 7.202848792076E-06 5.440611129761E+03
     1.098000000000E+05-2.793967723846E-08-9.815283250516E-01-3.725290298462E-08
     9.783250859782E-01 1.952500000000E+02-1.986133961903E+00-5.536659195508E-09
     2.817974522807E-10 5.210000000000E+02 2.036000000000E+03 0.000000000000E+00
     3.120000000000E+00 0.000000000000E+00 1.164153218269E-09 1.396983861923E-09
     1.105150000000E+05 0.000000000000E+00 0.000000000000E+00 0.000000000000E+00
E30 2019 01 14 05 40 00 5.190010939259E-03-3.055333763768E-11 0.000000000000E+00
     5.000000000000E+01 4.293750000000E+01 2.951908673131E-09-9.113653286069E-01
     2.069398760796E-06 3.144926158711E-04 4.531815648079E-06 5.440609916687E+03
     1.068000000000E+05-3.725290298462E-08-3.067010459582E+00 5.587935447693E-09
     9.876550405968E-01 2.540937500000E+02 6.121731690468E-01-5.691308494415E-09
    -2.750114553310E-11 5.210000000000E+02 2.036000000000E+03 0.000000000000E+00
     3.120000000000E+00 0.000000000000E+00-3.026798367500E-09-3.725290298462E-09
     1.105150000000E+05 0.000000000000E+00 0.000000000000E+00 0.000000000000E+00
E36 2019 01 14 06 30 00 7.598660886288E-04-4.447997525858E-12 0.000000000000E+00
     5.500000000000E+01 9.593750000000E+00 2.881905757228E-09 1.073611086200E+00
     4.693865776062E-07 3.349655307829E-04 8.612871170044E-06 5.440600074768E+03
     1.098000000000E+05 1.676380634308E-08-9.904380315824E-01 2.980232238770E-08
     9.852129139124E-01 1.683750000000E+02-1.520258314941E+00-5.525587305748E-09
     3.439428980308E-10 2.580000000000E+02 2.036000000000E+03 0.000000000000E+00
     3.120000000000E+00 5.600000000000E+01 9.313225746155E-10 0.000000000000E+00
     1.105500000000E+05 0.000000000000E+00 0.000000000000E+00 0.000000000000E+00
E08 2019 01 14 06 30 00 6.423773244023E-03-7.460698725481E-12 0.000000000000E+00
     5.500000000000E+01-6.434375000000E+01 3.125130174216E-09 1.691431495002E+00
    -3.036111593246E-06 2.130643697456E-04 1.033768057823E-05 5.440619768143E+03
     1.098000000000E+05 5.587935447693E-08 1.111587356978E+00-8.195638656616E-08
     9.584320684627E-01 1.201250000000E+02 4.741575392733E-01-5.555231397686E-09
    -3.310852195998E-10 5.210000000000E+02 2.036000000000E+03 0.000000000000E+00
     3.120000000000E+00 0.000000000000E+00-8.381903171539E-09-9.546056389809E-09
     1.105750000000E+05 0.000000000000E+00 0.000000000000E+00 0.000000000000E+00
